OBJECT_NAME,OBJECT_ID,EPOCH,MEAN_MOTION,ECCENTRICITY,INCLINATION,RA_OF_ASC_NODE,ARG_OF_PERICENTER,MEAN_ANOMALY,EPHEMERIS_TYPE,CLASSIFICATION_TYPE,NORAD_CAT_ID,ELEMENT_SET_NO,REV_AT_EPOCH,BSTAR,MEAN_MOTION_DOT,MEAN_MOTION_DDOT
SUOMI NPP,2011-061A,2026-07-20T14:38:14.881344,14.19523309,.00010207,98.7956,142.2589,189.3692,170.7465,0,U,37849,999,76318,.33541795E-4,.26E-6,0
YAOGAN-12,2011-066B,2026-07-20T15:00:36.923040,15.26918341,.00110602,97.1127,238.6251,106.0173,254.2286,0,U,37875,999,81714,.11293398E-3,.2921E-4,0
BEIDOU-2 M4,2012-018B,2026-07-19T21:00:44.744832,1.86229306,.00122384,55.6273,302.9841,272.0265,87.8661,0,U,38251,999,9655,0,-.99E-6,0
ARIRANG-3 (KOMPSAT-3),2012-025B,2026-07-20T15:09:46.977408,14.62231755,.00058832,98.1189,158.5188,23.9496,336.1978,0,U,38338,999,75623,.53632062E-4,.224E-5,0
METOP-B,2012-049A,2026-07-20T13:19:00.804288,14.21447359,.00012881,98.6486,252.3852,226.6070,133.5000,0,U,38771,999,71800,.35246555E-4,.34E-6,0
SJ-9A,2012-056A,2026-07-20T13:47:02.666688,14.85535073,.00264281,97.6733,172.3239,144.5612,215.7366,0,U,38860,999,70454,.73740051E-4,.588E-5,0
COSMOS 2484 (RODNIK-S 6),2013-001C,2026-07-20T15:09:08.980416,12.42940409,.00254289,82.5001,201.0995,323.5174,36.4172,0,U,39059,999,61271,-.13753343E-3,-.9E-7,0
SARAL,2013-009A,2026-07-20T15:05:42.391968,14.32896615,.00020158,98.5559,27.7736,154.1393,205.9892,0,U,39086,999,70039,.27449736E-4,.31E-6,0
STRAND-1,2013-009E,2026-07-20T11:22:55.596576,14.37180722,.00096444,98.3940,20.8921,126.9146,233.2926,0,U,39090,999,70184,.59206383E-4,.134E-5,0
BRITE-AUSTRIA,2013-009F,2026-07-20T10:21:59.260896,14.36553717,.00110319,98.4013,20.0477,136.1688,224.0376,0,U,39091,999,70182,.39374091E-4,.73E-6,0
GAOFEN-1,2013-018A,2026-07-20T14:35:36.841056,14.76521415,.00175542,97.9077,272.9943,154.1374,206.0718,0,U,39150,999,71317,.17692562E-4,.73E-6,0
NEE-01 PEGASO,2013-018B,2026-07-19T21:19:14.178720,14.93802517,.00135647,98.1265,346.1295,60.4464,299.8105,0,U,39151,999,71558,.14667651E-3,.1496E-4,0
PROBA-V,2013-021A,2026-07-19T22:36:32.047776,14.23603886,.00050686,98.3609,177.9355,48.9154,311.2463,0,U,39159,999,68577,.27512466E-4,.22E-6,0
ARIRANG-5 (KOMPSAT-5),2013-042A,2026-07-20T14:52:29.143200,15.04494630,.00047557,97.6204,27.8504,42.6309,317.5285,0,U,39227,999,70888,-.6214397E-5,-.148E-5,0
GONETS-M 5,2013-048A,2026-07-20T14:26:17.815776,12.42892526,.00175246,82.4860,322.5514,138.4583,221.7832,0,U,39249,999,58303,-.84494543E-4,-.2E-7,0
GONETS-M 7,2013-048C,2026-07-20T15:27:59.636736,12.42915392,.00183179,82.4927,325.4642,139.6120,220.6324,0,U,39251,999,58299,-.12517753E-3,-.7E-7,0
FENGYUN 3C,2013-052A,2026-07-20T14:43:38.820864,14.15761468,.00134995,98.5004,173.9579,289.1925,70.7789,0,U,39260,999,66329,.47158094E-4,.51E-6,0
CASSIOPE,2013-055A,2026-07-20T12:34:06.612096,15.27593412,.02819203,80.9139,26.1440,309.7902,47.8809,0,U,39265,999,67275,.16492774E-3,.15416E-3,-.521093E-6
APRIZESAT 7,2013-066A,2026-07-20T15:05:28.769280,14.91626724,.0037332,97.7724,154.3723,100.0148,260.5286,0,U,39416,999,68621,.77365288E-4,.729E-5,0
ZACUBE-1 (TSHEPISOSAT),2013-066B,2026-07-20T09:35:53.441376,15.01343884,.00440835,97.8001,163.8983,138.5230,221.9353,0,U,39417,999,68571,.1211726E-3,.1529E-4,0
APRIZESAT 8,2013-066K,2026-07-20T07:13:07.089600,14.87700936,.00459419,97.8231,148.3104,175.0264,185.1418,0,U,39425,999,68459,.50267589E-4,.409E-5,0
